O3B MPOWER F1           
1 54755U 22174A   24024.82147001 -.00000027  00000+0  00000+0 0  9995
2 54755   0.0597  11.6647 0006235 303.9116  45.6876  5.00118486 21612
